0 SL-19 DEB
1 23484U 94085G   13282.53737955  .00001298  00000-0  39835-1 0  1392
2 23484 064.7401 025.8701 0242535 194.5631 283.3439 11.20262842768537
0 SL-19 DEB
1 23484U 94085G   13283.66849860  .00000014  22771-6  10000-3 0  1414
2 23484 064.7351 024.0853 0241629 193.7413 165.6824 11.20257784768665
0 SL-19 DEB
1 23484U 94085G   13284.20600797  .00001171  00000-0  36062-1 0  1402
2 23484 064.7401 023.2028 0242468 194.3514 172.7662 11.20266845768721
0 SL-19 DEB
1 23484U 94085G   13285.48322466  .00001029  00000-0  31832-1 0  1410
2 23484 064.7401 021.1613 0242387 194.1919 283.6783 11.20270699768868
0 SL-19 DEB
1 23484U 94085G   13286.74638354  .00001154  00000-0  35551-1 0  1428
2 23484 064.7402 019.1419 0242315 194.0274 337.9190 11.20273953769002
0 SL-19 DEB
1 23484U 94085G   13288.51099894  .00001332  00000-0  40860-1 0  1433
2 23484 064.7401 016.3210 0242219 193.8008 254.5205 11.20277207769203
0 SL-19 DEB
1 23484U 94085G   13289.58612531  .00001179  00000-0  36292-1 0  1444
2 23484 064.7400 014.6024 0242165 193.6749 270.4487 11.20278750769322
0 SL-19 DEB
1 23484U 94085G   13290.66093593  .00001076  00000-0  33247-1 0  1450
2 23484 064.7398 012.8843 0242087 193.5435 285.1151 11.20281041769442
0 SL-19 DEB
1 23484U 94085G   13292.63806988  .00000978  00000-0  30336-1 0  1466
2 23484 064.7395 009.7238 0241908 193.3049 338.8308 11.20285878769668
0 SL-19 DEB
1 23484U 94085G   13294.20916345  .00000868  00000-0  27062-1 0  1471
2 23484 064.7392 007.2121 0241756 193.0956 195.0402 11.20289843769848
0 SL-19 DEB
1 23484U 94085G   13295.48178082  .00000785  00000-0  24598-1 0  1480
2 23484 064.7393 005.1775 0241640 192.9258 287.5144 11.20291466769985
